PROGRESS-MS 21          
1 54155U 22140A   22325.70530266  .00009606  00000+0  17523-3 0  9993
2 54155  51.6438 276.2646 0007024  98.7292 323.8398 15.50125202369616
STARLINK-5290           
1 54157U 22141A   22326.25002315 -.01188837  00000+0 -19175-1 0  9996
2 54157  53.2175  19.6275 0001583  35.0387  19.8987 15.55300396  3990
STARLINK-5297           
1 54158U 22141B   22325.91667824 -.01188818  00000+0 -18648-1 0  9994
2 54158  53.2174  21.2441 0001472  33.8186 308.7449 15.56048879  1306
STARLINK-5294           
1 54159U 22141C   22326.25002315 -.01188907  00000+0 -19230-1 0  9998
2 54159  53.2175  19.6336 0001390  43.1967   8.6918 15.55226748  3998
STARLINK-5233           
1 54160U 22141D   22326.25002315 -.00075509  00000+0 -53662-3 0  9991
2 54160  53.2194  19.1236 0003018  15.7259 292.8706 15.73270716  3999
STARLINK-5269           
1 54161U 22141E   22325.91667824 -.01189744  00000+0 -18617-1 0  9993
2 54161  53.2174  21.2383 0001269  43.5638 301.8459 15.56118332  1306
STARLINK-5273           
1 54162U 22141F   22325.91667824 -.01210179  00000+0 -18907-1 0  9993
2 54162  53.2176  21.2328 0001478  36.4321 311.9869 15.56209988  1305
STARLINK-5161           
1 54163U 22141G   22326.25002315 -.00070186  00000+0 -49797-3 0  9994
2 54163  53.2188  19.1750 0003497   9.1626 274.9532 15.73276844  3998
STARLINK-5278           
1 54164U 22141H   22325.91667824  .00012800  00000+0  95360-4 0  9994
2 54164  53.2190  20.8250 0003251  10.6574 183.8678 15.73229696  1308
STARLINK-5279           
1 54165U 22141J   22326.25002315 -.01188800  00000+0 -19124-1 0  9999
2 54165  53.2175  19.6214 0001518  37.8546  20.0628 15.55371703  3993
STARLINK-5280           
1 54166U 22141K   22325.91667824  .00017916  00000+0  13166-3 0  9992
2 54166  53.2186  20.8202 0002927   9.7697 185.9984 15.73223720  1301
STARLINK-5243           
1 54167U 22141L   22325.91667824 -.01166207  00000+0 -18124-1 0  9991
2 54167  53.2190  21.2332 0001110  91.3127 259.9655 15.56243959  1308
STARLINK-5245           
1 54168U 22141M   22326.25002315 -.00036292  00000+0 -25464-3 0  9994
2 54168  53.2186  19.1700 0003113   9.9034 276.0457 15.73249874  3994
STARLINK-5282           
1 54169U 22141N   22326.25002315  .00026656  00000+0  19353-3 0  9996
2 54169  53.2185  19.1757 0003269  11.7873 271.1829 15.73221793  3999
STARLINK-5155           
1 54170U 22141P   22326.25002315 -.00068313  00000+0 -48452-3 0  9998
2 54170  53.2181  19.1709 0003285  14.0761 272.4266 15.73275038  3994
STARLINK-5229           
1 54171U 22141Q   22326.25002315  .00030805  00000+0  22295-3 0  9999
2 54171  53.2192  19.1775 0003048   6.9488 275.4235 15.73212587  3992
STARLINK-5117           
1 54172U 22141R   22325.91667824 -.00045129  00000+0 -31812-3 0  9996
2 54172  53.2184  20.8133 0003508   5.4495 193.2523 15.73242728  1304
STARLINK-5242           
1 54173U 22141S   22325.91667824 -.00064843  00000+0 -45997-3 0  9990
2 54173  53.2186  20.8195 0003184  13.3410 182.9944 15.73251516  3949
STARLINK-5248           
1 54174U 22141T   22326.25002315 -.00081004  00000+0 -57654-3 0  9998
2 54174  53.2169  18.3736 0002292  25.9830 286.1108 15.73267410  4005
STARLINK-5256           
1 54175U 22141U   22325.91667824  .00040373  00000+0  29054-3 0  9998
2 54175  53.2189  20.8161 0003418   7.4419 190.6948 15.73207764  3946
STARLINK-5154           
1 54176U 22141V   22326.25002315 -.00035017  00000+0 -24545-3 0  9996
2 54176  53.2179  19.1586 0003446   9.8067 280.3142 15.73252218  3996
STARLINK-5186           
1 54177U 22141W   22326.25002315 -.00079177  00000+0 -56325-3 0  9993
2 54177  53.2193  19.1660 0003250  14.4207 273.9476 15.73265235  3998
STARLINK-5164           
1 54178U 22141X   22326.25002315 -.00089047  00000+0 -63489-3 0  9990
2 54178  53.2180  19.1572 0003301   8.5572 282.1797 15.73259920  3995
STARLINK-5122           
1 54179U 22141Y   22325.91667824  .00048175  00000+0  34588-3 0  9998
2 54179  53.2187  20.8124 0002960   6.7385 193.1250 15.73184750  4171
STARLINK-5228           
1 54180U 22141Z   22326.25002315 -.00088183  00000+0 -62868-3 0  9993
2 54180  53.2180  19.1510 0003050  10.2144 283.4714 15.73259303  4221
STARLINK-5227           
1 54181U 22141AA  22326.25002315 -.00084704  00000+0 -60348-3 0  9990
2 54181  53.2183  19.1571 0003390  10.6276 280.7006 15.73256355  4227
STARLINK-5231           
1 54182U 22141AB  22326.25002315 -.00091635  00000+0 -65317-3 0  9993
2 54182  53.2171  19.1445 0003295  12.6835 283.3703 15.73277694  4224
STARLINK-5239           
1 54183U 22141AC  22325.91667824  .00045025  00000+0  32343-3 0  9991
2 54183  53.2191  20.8044 0003228  11.0114 193.0734 15.73201650  1306
STARLINK-5162           
1 54184U 22141AD  22326.25002315 -.00056732  00000+0 -40165-3 0  9998
2 54184  53.2168  19.1469 0003199   9.4053 284.9397 15.73242370  4226
STARLINK-5235           
1 54185U 22141AE  22326.25002315 -.00074216  00000+0 -52713-3 0  9998
2 54185  53.2184  19.1585 0003326  10.3754 282.1134 15.73275094  4223
STARLINK-5194           
1 54186U 22141AF  22325.91667824  .00055993  00000+0  40105-3 0  9994
2 54186  53.2175  20.7916 0003220  11.3049 196.8243 15.73176359  4171
STARLINK-5240           
1 54187U 22141AG  22326.25002315 -.00097588  00000+0 -69698-3 0  9997
2 54187  53.2188  19.1567 0002972  14.5196 277.4098 15.73259724  4229
STARLINK-5238           
1 54188U 22141AH  22325.91667824  .00037527  00000+0  27059-3 0  9992
2 54188  53.2159  20.7887 0003236   8.1310 199.5745 15.73197346  1302
STARLINK-5182           
1 54189U 22141AJ  22325.91667824 -.00099174  00000+0 -70870-3 0  9990
2 54189  53.2186  20.7989 0003516   5.1410 200.8270 15.73250311  1306
STARLINK-5281           
1 54190U 22141AK  22325.91667824 -.00064583  00000+0 -45825-3 0  9990
2 54190  53.2177  20.7909 0003061  15.1776 193.6842 15.73244112  4175
STARLINK-4619           
1 54191U 22141AL  22326.25002315 -.00053928  00000+0 -38130-3 0  9999
2 54191  53.2178  19.1466 0003372   6.9286 288.5743 15.73250296  4237
STARLINK-5268           
1 54192U 22141AM  22325.91667824  .00042799  00000+0  30757-3 0  9993
2 54192  53.2185  20.7816 0003414  12.7624 201.4171 15.73213504  1306
STARLINK-5263           
1 54193U 22141AN  22326.25002315 -.00042025  00000+0 -29537-3 0  9998
2 54193  53.2177  19.1400 0003399  15.9765 283.0109 15.73279350  4224
STARLINK-5271           
1 54194U 22141AP  22326.25002315 -.00084245  00000+0 -60001-3 0  9990
2 54194  53.2184  19.1380 0003204  10.1834 290.0855 15.73262929  4229
STARLINK-5258           
1 54195U 22141AQ  22326.25002315  .00019750  00000+0  14482-3 0  9990
2 54195  53.2185  19.1423 0002927  13.3620 285.1893 15.73196638  4228
STARLINK-5237           
1 54196U 22141AR  22326.25002315 -.00085176  00000+0 -60650-3 0  9996
2 54196  53.2181  19.1352 0002912  11.8196 289.6026 15.73274342  4227
STARLINK-5234           
1 54197U 22141AS  22325.91667824 -.00036416  00000+0 -25584-3 0  9991
2 54197  53.2191  20.7898 0003048  11.0316 199.6936 15.73222001  1300
STARLINK-5246           
1 54198U 22141AT  22326.25002315 -.00035591  00000+0 -24957-3 0  9994
2 54198  53.2182  19.1337 0002895  18.0806 283.9680 15.73255207  4222
STARLINK-5244           
1 54199U 22141AU  22326.25002315 -.00091588  00000+0 -65351-3 0  9996
2 54199  53.2186  19.1372 0003307  13.0072 287.8866 15.73253415  4223
STARLINK-5250           
1 54200U 22141AV  22325.91667824  .00046353  00000+0  33288-3 0  9995
2 54200  53.2156  20.7729 0003044  15.0840 199.7621 15.73195161  1309
STARLINK-5199           
1 54201U 22141AW  22326.25002315 -.00074811  00000+0 -53155-3 0  9999
2 54201  53.2177  19.1286 0003174  13.4417 290.9787 15.73270838  4236
STARLINK-5205           
1 54202U 22141AX  22326.25002315 -.00094142  00000+0 -67167-3 0  9997
2 54202  53.2171  19.1253 0002861  17.9021 287.1441 15.73269665  4227
STARLINK-5247           
1 54203U 22141AY  22326.25002315 -.00083148  00000+0 -59197-3 0  9996
2 54203  53.2173  19.1304 0002937  10.8847 291.8034 15.73267884  4220
STARLINK-5241           
1 54204U 22141AZ  22326.25002315 -.00064703  00000+0 -45914-3 0  9995
2 54204  53.2176  19.1223 0002941   7.5001 299.3118 15.73243851  4239
STARLINK-5249           
1 54205U 22141BA  22326.25002315 -.00069581  00000+0 -49430-3 0  9992
2 54205  53.2174  19.1249 0002905  14.0711 291.5664 15.73247662  4231
STARLINK-5264           
1 54206U 22141BB  22326.25002315 -.00000232  00000+0  27746-5 0  9998
2 54206  53.2164  18.6918 0002486  27.8041 127.5231 15.73223470  4239
STARLINK-5262           
1 54207U 22141BC  22326.25002315 -.00090350  00000+0 -64356-3 0  9996
2 54207  53.2177  19.1248 0003073  15.9620 290.1946 15.73289622  4231
STARLINK-5255           
1 54208U 22141BD  22326.25002315 -.00091550  00000+0 -65285-3 0  9992
2 54208  53.2172  19.1204 0003132   9.8047 297.6212 15.73268257  4239
STARLINK-5259           
1 54209U 22141BE  22326.25002315  .00023352  00000+0  17019-3 0  9998
2 54209  53.2170  19.1187 0003424  13.1072 294.9361 15.73216822  4234
SHIYAN 20C (SY-20C)     
1 54214U 22142A   22326.23650191 -.00000136  00000+0  00000+0 0  9998
2 54214  59.9977 283.3585 0009975 297.2828  62.7190 14.27344864  3467
CZ-2D R/B               
1 54215U 22142B   22326.15282252 -.00000138  00000+0  00000+0 0  9991
2 54215  59.9059 282.6786 0024731 221.1883 138.7327 14.33513011  3463
CSS (MENGTIAN)          
1 54216U 22143A   22325.50000426  .00017008  00000+0  21774-3 0  9990
2 54216  41.4782 340.7631 0005753 287.2893 199.4266 15.58787929 89363
2022-145A               
1 54223U 22145A   22326.07233704 -.00000361  00000+0  00000+0 0  9990
2 54223  63.8413  91.2526 6991531 269.8866 294.0824  2.01038513   391
2022-145B               
1 54224U 22145B   22326.24421942  .00000694  00000+0  00000+0 0  9991
2 54224  63.8537  91.0637 6980253 270.0278  95.5388  2.02013460   406
